OBJECT_NAME,OBJECT_ID,EPOCH,MEAN_MOTION,ECCENTRICITY,INCLINATION,RA_OF_ASC_NODE,ARG_OF_PERICENTER,MEAN_ANOMALY,EPHEMERIS_TYPE,CLASSIFICATION_TYPE,NORAD_CAT_ID,ELEMENT_SET_NO,REV_AT_EPOCH,BSTAR,MEAN_MOTION_DOT,MEAN_MOTION_DDOT
GOMX-1,2013-066Q,2026-05-17T13:00:49.608576,14.69328077,.0128832,97.6505,339.9385,175.2621,184.9839,0,U,39430,999,66541,.18999E-3,.1223E-4,0
CUBEBUG-2 (LO-74),2013-066AA,2026-05-17T09:08:11.412096,14.93506271,.0059123,97.8896,86.2394,128.4893,232.1650,0,U,39440,999,67239,.16747E-3,.1762E-4,0
NEE-02 KRYSAOR,2013-066AB,2026-05-17T09:08:05.326944,14.86491868,.0066436,97.8885,76.8212,169.4104,190.8529,0,U,39441,999,67162,.10888E-3,.943E-5,0
FUNCUBE-1 (AO-73),2013-066AE,2026-05-17T11:49:51.300768,15.09062717,.0034922,97.8263,108.3114,310.4162,49.4020,0,U,39444,999,67503,.27395E-3,.433E-4,0
UWE-3,2013-066AG,2026-05-17T09:35:10.484160,14.96739600,.0050495,97.8683,93.2775,63.0713,297.5654,0,U,39446,999,67297,.23449E-3,.2687E-4,0
SMDC ONE 2.4,2013-072H,2026-05-17T04:15:34.386048,15.17560172,.0140609,120.4892,232.4240,345.5368,14.1706,0,U,39469,999,11312,.27738E-3,.6843E-4,0
COSMOS 2488 (RODNIK-S 7),2013-076A,2026-05-17T12:42:59.402016,12.42904794,.0020133,82.4858,187.7949,159.0955,201.0952,0,U,39483,999,56208,.37855E-3,.62E-6,0
COSMOS 2489 (RODNIK-S 8),2013-076B,2026-05-17T12:06:21.142368,12.42879289,.0021983,82.4895,189.1792,159.3575,200.8398,0,U,39484,999,56213,.23274E-3,.42E-6,0
COSMOS 2490 (RODNIK-S 9),2013-076C,2026-05-17T11:25:47.716608,12.42876951,.0021761,82.4841,187.2778,174.8928,185.2377,0,U,39485,999,56206,.4729E-3,.75E-6,0
KAZEOSAT 1,2014-024A,2026-05-17T11:48:56.111040,14.42067041,.0001637,98.3217,210.7010,89.3013,270.8364,0,U,39731,999,63413,.93661E-4,.265E-5,0
COSMOS 2496 (RODNIK-S 10),2014-028A,2026-05-17T12:20:37.419936,12.42877372,.0020632,82.4415,127.9432,142.8023,217.4490,0,U,39761,999,54370,-.29416E-3,-.31E-6,0
COSMOS 2497 (RODNIK-S 11),2014-028B,2026-05-17T11:45:35.172288,12.42893409,.0021281,82.4463,129.6365,138.0546,222.2168,0,U,39762,999,54370,.43114E-3,.7E-6,0
COSMOS 2498 (RODNIK-S 12),2014-028C,2026-05-17T13:12:18.126720,12.42979662,.0022011,82.4423,128.0992,137.6802,222.5980,0,U,39763,999,54374,.14896E-3,.31E-6,0
HODOYOSHI-4,2014-033B,2026-05-17T12:09:06.372000,14.88049149,.002489,97.5450,323.8124,49.7203,310.6185,0,U,40011,999,64424,.39457E-4,.312E-5,0
UNISAT-6,2014-033C,2026-05-17T09:43:13.200096,14.88049968,.0045577,97.7843,290.6700,168.2987,191.9300,0,U,40012,999,64158,.20495E-3,.1863E-4,0
DEIMOS-2,2014-033D,2026-05-17T12:02:12.732864,14.93631339,.0002426,97.5877,13.0645,75.7024,284.4465,0,U,40013,999,63314,.31904E-4,.283E-5,0
BUGSAT-1 (TITA),2014-033E,2026-05-17T12:43:27.774048,15.15244355,.0026829,98.0421,228.2959,286.0669,73.7607,0,U,40014,999,65119,.2966E-3,.555E-4,0
SAUDISAT 4,2014-033G,2026-05-17T09:56:43.035936,14.79494799,.0045082,97.7542,284.6215,171.7354,188.4611,0,U,40016,999,64152,.62635E-4,.424E-5,0
APRIZESAT 9,2014-033J,2026-05-17T07:47:15.137664,14.74174420,.0064911,97.9016,271.2850,300.1368,59.3418,0,U,40018,999,63901,.47536E-4,.27E-5,0
BRITE-CA1 (TORONTO),2014-033L,2026-05-17T07:50:14.566272,14.72631353,.0078959,97.9695,266.8319,16.7377,343.6409,0,U,40020,999,63767,.66749E-4,.392E-5,0
DUCHIFAT-1,2014-033M,2026-05-17T03:12:12.551040,15.58796001,.0006095,98.0501,192.0856,176.1135,184.0168,0,U,40021,999,65090,.83778E-3,.65011E-3,0
NANOSATC-BR1,2014-033Q,2026-05-17T00:40:03.921888,15.30403978,.0001705,98.0741,166.6784,299.8684,60.2385,0,U,40024,999,64921,.48321E-3,.14134E-3,0
QB50P1,2014-033R,2026-05-17T11:57:46.912032,15.17746364,.0007888,98.0971,146.5048,342.5247,17.5712,0,U,40025,999,64837,.29821E-3,.5948E-4,0
