GOMX-1                  
1 39430U 13066Q   26137.54224084  .00001223  00000+0  18999-3 0  9999
2 39430  97.6505 339.9385 0128832 175.2621 184.9839 14.69328077665412
CUBEBUG-2 (LO-74)       
1 39440U 13066AA  26137.38068764  .00001762  00000+0  16747-3 0  9990
2 39440  97.8896  86.2394 0059123 128.4893 232.1650 14.93506271672390
NEE-02 KRYSAOR          
1 39441U 13066AB  26137.38061721  .00000943  00000+0  10888-3 0  9997
2 39441  97.8885  76.8212 0066436 169.4104 190.8529 14.86491868671625
FUNCUBE-1 (AO-73)       
1 39444U 13066AE  26137.49295487  .00004330  00000+0  27395-3 0  9995
2 39444  97.8263 108.3114 0034922 310.4162  49.4020 15.09062717675034
UWE-3                   
1 39446U 13066AG  26137.39942690  .00002687  00000+0  23449-3 0  9990
2 39446  97.8683  93.2775 0050495  63.0713 297.5654 14.96739600672979
SMDC ONE 2.4            
1 39469U 13072H   26137.17748132  .00006843  00000+0  27738-3 0  9996
2 39469 120.4892 232.4240 0140609 345.5368  14.1706 15.17560172113122
COSMOS 2488 (RODNIK-S 7)
1 39483U 13076A   26137.52985419  .00000062  00000+0  37855-3 0  9994
2 39483  82.4858 187.7949 0020133 159.0955 201.0952 12.42904794562084
COSMOS 2489 (RODNIK-S 8)
1 39484U 13076B   26137.50441137  .00000042  00000+0  23274-3 0  9995
2 39484  82.4895 189.1792 0021983 159.3575 200.8398 12.42879289562130
COSMOS 2490 (RODNIK-S 9)
1 39485U 13076C   26137.47624672  .00000075  00000+0  47290-3 0  9999
2 39485  82.4841 187.2778 0021761 174.8928 185.2377 12.42876951562061
KAZEOSAT 1              
1 39731U 14024A   26137.49231610  .00000265  00000+0  93661-4 0  9990
2 39731  98.3217 210.7010 0001637  89.3013 270.8364 14.42067041634133
COSMOS 2496 (RODNIK-S *)
1 39761U 14028A   26137.51432199 -.00000031  00000+0 -29416-3 0  9994
2 39761  82.4415 127.9432 0020632 142.8023 217.4490 12.42877372543702
COSMOS 2497 (RODNIK-S *)
1 39762U 14028B   26137.48999042  .00000070  00000+0  43114-3 0  9998
2 39762  82.4463 129.6365 0021281 138.0546 222.2168 12.42893409543703
COSMOS 2498 (RODNIK-S *)
1 39763U 14028C   26137.55020980  .00000031  00000+0  14896-3 0  9995
2 39763  82.4423 128.0992 0022011 137.6802 222.5980 12.42979662543746
HODOYOSHI-4             
1 40011U 14033B   26137.50632375  .00000312  00000+0  39457-4 0  9994
2 40011  97.5450 323.8124 0024890  49.7203 310.6185 14.88049149644241
UNISAT-6                
1 40012U 14033C   26137.40501389  .00001863  00000+0  20495-3 0  9997
2 40012  97.7843 290.6700 0045577 168.2987 191.9300 14.88049968641584
DEIMOS-2                
1 40013U 14033D   26137.50153626  .00000283  00000+0  31904-4 0  9999
2 40013  97.5877  13.0645 0002426  75.7024 284.4465 14.93631339633143
BUGSAT-1 (TITA)         
1 40014U 14033E   26137.53018257  .00005550  00000+0  29660-3 0  9990
2 40014  98.0421 228.2959 0026829 286.0669  73.7607 15.15244355651193
SAUDISAT 4              
1 40016U 14033G   26137.41438699  .00000424  00000+0  62635-4 0  9990
2 40016  97.7542 284.6215 0045082 171.7354 188.4611 14.79494799641522
APRIZESAT 9             
1 40018U 14033J   26137.32448076  .00000270  00000+0  47536-4 0  9994
2 40018  97.9016 271.2850 0064911 300.1368  59.3418 14.74174420639017
BRITE-CA1 (TORONTO)     
1 40020U 14033L   26137.32655748  .00000392  00000+0  66749-4 0  9995
2 40020  97.9695 266.8319 0078959  16.7377 343.6409 14.72631353637670
DUCHIFAT-1              
1 40021U 14033M   26137.13347860  .00065011  00000+0  83778-3 0  9997
2 40021  98.0501 192.0856 0006095 176.1135 184.0168 15.58796001650907
NANOSATC-BR1            
1 40024U 14033Q   26137.02782317  .00014134  00000+0  48321-3 0  9993
2 40024  98.0741 166.6784 0001705 299.8684  60.2385 15.30403978649214
QB50P1                  
1 40025U 14033R   26137.49845963  .00005948  00000+0  29821-3 0  9999
2 40025  98.0971 146.5048 0007888 342.5247  17.5712 15.17746364648378
